0 TITAN 3C TRANSTAGE DEB
1 01835U 65082EA  13280.48730320  .00001032  00000-0  10657-3 0  6062
2 01835 032.3929 333.4778 0017794 147.2485 212.9278 14.87671676574900
0 TITAN 3C TRANSTAGE DEB
1 01835U 65082EA  13283.17137787  .00001499  00000-0  15664-3 0  6070
2 01835 032.3926 317.0008 0017844 172.0352 188.0591 14.87682897575309
0 TITAN 3C TRANSTAGE DEB
1 01835U 65082EA  13285.38572425  .00001430  00000-0  14915-3 0  6081
2 01835 032.3928 303.4078 0017885 192.4345 167.5873 14.87689277575630
0 TITAN 3C TRANSTAGE DEB
1 01835U 65082EA  13288.13686837  .00002504  00000-0  26435-3 0  6094
2 01835 032.3927 286.5187 0017935 217.5281 142.4124 14.87700189576048
0 TITAN 3C TRANSTAGE DEB
1 01835U 65082EA  13291.15639641  .00002059  00000-0  21658-3 0  6100
2 01835 032.3925 267.9820 0017803 245.3725 114.5077 14.87712842576494
0 TITAN 3C TRANSTAGE DEB
1 01835U 65082EA  13294.17590494  .00002798  00000-0  29570-3 0  6119
2 01835 032.3927 249.4463 0017912 272.9415 086.9192 14.87723506576946
